[{"OBJECT_NAME":"QIANFAN-35","OBJECT_ID":"2024-185S","EPOCH":"2026-03-09T22:26:33.581760","MEAN_MOTION":14.28128705,"ECCENTRICITY":0.00069627,"INCLINATION":88.9749,"RA_OF_ASC_NODE":66.6226,"ARG_OF_PERICENTER":20.1226,"MEAN_ANOMALY":340.0242,"EPHEMERIS_TYPE":0,"CLASSIFICATION_TYPE":"U","NORAD_CAT_ID":61568,"ELEMENT_SET_NO":999,"REV_AT_EPOCH":8262,"BSTAR":0.00043408229,"MEAN_MOTION_DOT":1.093e-5,"MEAN_MOTION_DDOT":0},{"OBJECT_NAME":"FENGYUN 1C DEB","OBJECT_ID":"1999-025BMA","EPOCH":"2026-02-25T09:40:29.005536","MEAN_MOTION":14.063737,"ECCENTRICITY":0.01015807,"INCLINATION":99.023,"RA_OF_ASC_NODE":124.8264,"ARG_OF_PERICENTER":327.3456,"MEAN_ANOMALY":32.1457,"EPHEMERIS_TYPE":0,"CLASSIFICATION_TYPE":"U","NORAD_CAT_ID":31244,"ELEMENT_SET_NO":999,"REV_AT_EPOCH":58689,"BSTAR":0.00043338924,"MEAN_MOTION_DOT":7.04e-6,"MEAN_MOTION_DDOT":0}]
